{
  "venues":[
    {
      "name": "Arcade Comedy Theater",
      "street_address": "403 E Ohio St", 
      "city": "Pittsburgh", 
      "state": "PA",
      "zip_code": "15212", 
      "neighborhood": "North Side", 
      "url": "http://arcadecomedytheater.com/", 
      "details": "Parking is available in garages near the Arcade or by a number of bus routes" 
    },  
    {"name": "Wyndham Pittsburgh - University Place", 
      "street_address": "3454 Forbes Ave", 
      "city": "Pittsburgh", 
      "state": "PA", 
      "zip_code": "15213", 
      "neighborhood": "Oakland", 
      "url": "http://www.wyndham.com/hotels/pennsylvania/pittsburgh/wyndham-pittsburgh-university-center/hotel-overview", 
      "details": "PCF Sponsor and party venue" 
    },  
    {"name": "Smiling Moose", 
      "street_address": "1306 E Carson St", 
      "city": "Pittsburgh", 
      "state": "PA", 
      "zip_code": "15203", 
      "neighborhood": "South Side", 
      "url": "http://smiling-moose.com/", 
      "details": "A great supporter of Pittsburgh stand-ups" 
    },  
    {"name": "Backstage Bar at Cabaret at Theater Square", 
      "street_address": "655 Penn Ave", 
      "city": "Pittsburgh", 
      "state": "PA", 
      "zip_code": "15222", 
      "neighborhood": "Downtown", 
      "url": "http://www.trustarts.org/visit/facilities/backstage/", 
      "details": "PCF Sponsor and supporter of comedy for many years"
    },  
    {"name": "Stephen Foster Memorial, Henry Heymann Theater", 
      "street_address": "4200 Fifth Ave", 
      "city": "Pittsburgh", 
      "state": "PA", 
      "zip_code": "15260", 
      "neighborhood": "Oakland", 
      "url": "", 
      "details": "Our smaller festival venue, seats 150. Parking available in ... garages, street parking, busses" 
    },  
    {"name": "Park House", 
      "street_address": "403 E Ohio St", 
      "city": "Pittsburgh", 
      "state": "PA", 
      "zip_code": "15212", 
      "neighborhood": "North Side", 
      "url": "http://parkhousepgh.com/", 
      "details": "A favorite bar of Pittsburgh comedians" 
    },  
    {"name": "PNC Park", 
      "street_address": "115 Federal St", 
      "city": "Pittsburgh", 
      "state": "PA", 
      "zip_code": "15212", 
      "neighborhood": "North Side", 
      "url": "http://pittsburgh.pirates.mlb.com/index.jsp?c_id=pit", 
      "details": "Some info about PNC Park" 
    },  
    {"name": "Steel City Improv Theater", 
      "street_address": "5950 Ellsworth Ave","city": "Pittsburgh", 
      "state": "PA", 
      "zip_code": "15232", 
      "neighborhood": "Shadyside", 
      "url": "http://steelcityimprov.com/", 
      "details": "Parking, etc"
    },
    {"name": "Cathedral of Learning Basement, Studio Theater", 
      "street_address": "4200 Fifth Ave", 
      "city": "Pittsburgh", 
      "state": "PA", 
      "zip_code": "15260", 
      "neighborhood": "Oakland", 
      "details": "Finding the Studio Theater can be a challenge..."
    },
    {"name": "Cathedral of Learning Classrooms", 
      "street_address": "4200 Fifth Ave", 
      "city": "Pittsburgh", 
      "state": "PA", 
      "zip_code": "15260", 
      "neighborhood": "Oakland", 
      "details": "..." 
    }
  ]
}